IRIDIUM 57 [-]          
1 25273U 98019B   23302.79609445  .00000672  00000+0  22947-3 0  9991
2 25273  86.4008  34.9918 0002156  93.0033 267.1410 14.34959960339234
IRIDIUM 63 [-]          
1 25286U 98021B   23303.18306134  .00000673  00000+0  22756-3 0  9990
2 25286  86.3980 331.7966 0002349  88.3723 271.7742 14.35464590338581
IRIDIUM 69 [-]          
1 25319U 98026A   23303.50753746  .00000775  00000+0  24177-3 0  9995
2 25319  86.4007 346.7118 0003036 140.3823 219.7598 14.39640154337562
IRIDIUM 71 [-]          
1 25320U 98026B   23303.21179580  .00000690  00000+0  21296-3 0  9998
2 25320  86.3991 341.6631 0000770 164.4443 195.6779 14.39972180338040
IRIDIUM 73 [-]          
1 25344U 98032C   23303.51512044  .00000943  00000+0  23787-3 0  9998
2 25344  86.4369 299.3262 0002186 106.7818 253.3627 14.50095125344491
IRIDIUM 82 [-]          
1 25467U 98051A   23303.28287546  .00014330  00000+0  83628-3 0  9990
2 25467  86.4004  34.3923 0144419 345.1895  14.5126 15.03335946333726
IRIDIUM 2 [-]           
1 25527U 98066A   23303.43678181  .00052145  00000+0  11611-2 0  9997
2 25527  85.5163  89.0654 0005146 128.0201 232.1518 15.43400727371470
